{
"type": "FeatureCollection",
"name": "K5215_faults",
"crs": { "type": "name", "properties": { "name": "urn:ogc:def:crs:OGC:1.3:CRS84" } },
"features": [
{ "type": "Feature", "properties": { "CHFCAC": "K5215D08D00001", "GZEE": "522", "SHEET": "K5215" }, "geometry": { "type": "LineString", "coordinates": [ [ 128.136766555777371, 42.635726029598899 ], [ 128.139560805261709, 42.639568414894072 ], [ 128.141987602871012, 42.64311539749739 ] ] } },
{ "type": "Feature", "properties": { "CHFCAC": "K5215D08D00002", "GZEE": "101", "SHEET": "K5215" }, "geometry": { "type": "LineString", "coordinates": [ [ 128.705823367361916, 42.405598812942884 ], [ 128.709580846337786, 42.403713374500803 ], [ 128.711804272253715, 42.402332601112299 ], [ 128.714204105895419, 42.399309273301022 ] ] } },
{ "type": "Feature", "properties": { "CHFCAC": "K5215D08D00003", "GZEE": "101", "SHEET": "K5215" }, "geometry": { "type": "LineString", "coordinates": [ [ 128.234933636737765, 42.635293920764056 ], [ 128.236505198545359, 42.636965291264104 ], [ 128.239219801492368, 42.640908245292302 ], [ 128.242501321186694, 42.644364271517901 ], [ 128.246983785488879, 42.648188190806394 ], [ 128.255164206217131, 42.655200231041235 ], [ 128.259039535221376, 42.659330287182513 ] ] } },
{ "type": "Feature", "properties": { "CHFCAC": "K5215D08D00004", "GZEE": "522", "SHEET": "K5215" }, "geometry": { "type": "LineString", "coordinates": [ [ 128.920131931318195, 42.125950793601803 ], [ 128.922637892688499, 42.125160252964953 ], [ 128.924763936454639, 42.12459898301347 ] ] } },
{ "type": "Feature", "properties": { "CHFCAC": "K5215D08D00005", "GZEE": "103", "SHEET": "K5215" }, "geometry": { "type": "LineString", "coordinates": [ [ 128.27449834077305, 42.659055665679581 ], [ 128.271529078826319, 42.659108837964844 ], [ 128.267818902671735, 42.659211212121612 ], [ 128.266053691171635, 42.659132387825828 ], [ 128.259039535221376, 42.659330287182513 ], [ 128.254839536200933, 42.659532594649839 ] ] } },
{ "type": "Feature", "properties": { "CHFCAC": "K5215D08D00006", "GZEE": "101", "SHEET": "K5215" }, "geometry": { "type": "LineString", "coordinates": [ [ 128.383489930511217, 42.533695639086964 ], [ 128.387761286822723, 42.528879839131704 ], [ 128.394362102697102, 42.523603580822417 ], [ 128.402025678811384, 42.517400757536755 ], [ 128.410491667727911, 42.512385348383724 ], [ 128.417531038988898, 42.508113741476542 ], [ 128.424178461078526, 42.5045554318204 ] ] } },
{ "type": "Feature", "properties": { "CHFCAC": "K5215D08D00007", "GZEE": "101", "SHEET": "K5215" }, "geometry": { "type": "LineString", "coordinates": [ [ 128.855932804197977, 42.170186864227489 ], [ 128.864241551276535, 42.16400752986533 ], [ 128.872404277629869, 42.157957967318517 ], [ 128.881927057267575, 42.150144659414032 ], [ 128.891617074388648, 42.142200165976718 ] ] } },
{ "type": "Feature", "properties": { "CHFCAC": "K5215D08D00008", "GZEE": "522", "SHEET": "K5215" }, "geometry": { "type": "LineString", "coordinates": [ [ 128.899013570773633, 42.195953972754815 ], [ 128.886772507518145, 42.200106346067493 ], [ 128.881504016553976, 42.201113840863378 ], [ 128.876011429691516, 42.202453955253993 ] ] } },
{ "type": "Feature", "properties": { "CHFCAC": "K5215D08D00009", "GZEE": "101", "SHEET": "K5215" }, "geometry": { "type": "LineString", "coordinates": [ [ 128.851570316456247, 42.165895941806127 ], [ 128.855932804197977, 42.170186864227489 ], [ 128.86004054070969, 42.174490808954339 ], [ 128.865094685205889, 42.180065122006255 ], [ 128.868870624970839, 42.184904022584924 ], [ 128.870538886333264, 42.189146249382532 ], [ 128.873071808955558, 42.195964215327919 ], [ 128.876011429691516, 42.202453955253993 ], [ 128.884068133776253, 42.219806256394698 ], [ 128.893048909779708, 42.234710056785474 ], [ 128.896779563573546, 42.240772323828892 ], [ 128.907597468462313, 42.25921013726709 ], [ 128.910679414938272, 42.265469462744029 ], [ 128.916414193616447, 42.277118774491562 ] ] } },
{ "type": "Feature", "properties": { "CHFCAC": "K5215D08D00010", "GZEE": "521", "SHEET": "K5215" }, "geometry": { "type": "LineString", "coordinates": [ [ 128.966440424959643, 42.378059065471859 ], [ 128.97003693056152, 42.378168092710347 ], [ 128.972836903120964, 42.378308328946183 ], [ 128.974811671467904, 42.37831778257187 ], [ 128.976553413915241, 42.378376668642879 ], [ 129.001030729234031, 42.378532104223439 ] ] } },
{ "type": "Feature", "properties": { "CHFCAC": "K5215D08D00011", "GZEE": "101", "SHEET": "K5215" }, "geometry": { "type": "LineString", "coordinates": [ [ 128.965391118245975, 42.367755350151391 ], [ 128.965811850642751, 42.37197316675487 ], [ 128.965816339712433, 42.372202732828725 ], [ 128.966440424959643, 42.378059065471859 ], [ 128.967488996830639, 42.386337187246561 ], [ 128.968091163601997, 42.388277398623778 ], [ 128.969916165300759, 42.395988539063758 ], [ 128.972196002774297, 42.40302906660952 ], [ 128.97359990842449, 42.407305579114535 ], [ 128.97535610884438, 42.411816212842659 ], [ 128.977175978187262, 42.418500924171312 ], [ 128.977798576002385, 42.42674279748632 ], [ 128.978423431311825, 42.449068955271947 ], [ 128.979880826314968, 42.465881210363214 ], [ 128.979890447099052, 42.474361457551709 ], [ 128.979255069275268, 42.479825784812007 ], [ 128.977315600284442, 42.483804463404581 ], [ 128.975874817753407, 42.486815458244422 ] ] } },
{ "type": "Feature", "properties": { "CHFCAC": "K5215D08D00012", "GZEE": "102", "SHEET": "K5215" }, "geometry": { "type": "LineString", "coordinates": [ [ 128.917308851065087, 42.552270937591096 ], [ 128.924462051245968, 42.553482177383096 ], [ 128.927320806347637, 42.554015160344989 ], [ 128.942442046358053, 42.555761186324034 ], [ 128.943333821042131, 42.555874159905116 ], [ 128.946620810694583, 42.556294341765827 ], [ 128.948795345628866, 42.556664426709993 ] ] } },
{ "type": "Feature", "properties": { "CHFCAC": "K5215D08D00013", "GZEE": "511", "SHEET": "K5215" }, "geometry": { "type": "LineString", "coordinates": [ [ 128.764408071391955, 42.575261840463973 ], [ 128.764632978249068, 42.569901483037725 ], [ 128.764972514989097, 42.560841442233638 ], [ 128.764974221153778, 42.560386832872169 ], [ 128.764289122451004, 42.552958572684837 ], [ 128.761894235838668, 42.546359471891712 ], [ 128.760380699706985, 42.541693150163681 ], [ 128.759550456701334, 42.535884947662154 ], [ 128.75957889138536, 42.529088282569916 ], [ 128.759286800293353, 42.52540573399051 ], [ 128.759617190564057, 42.519289368152506 ] ] } },
{ "type": "Feature", "properties": { "CHFCAC": "K5215D08D00014", "GZEE": "101", "SHEET": "K5215" }, "geometry": { "type": "LineString", "coordinates": [ [ 128.641760013031842, 42.446386616292955 ], [ 128.649819665273895, 42.441077599549935 ], [ 128.658309416823357, 42.436003346953676 ], [ 128.660287487209843, 42.434758471759629 ] ] } },
{ "type": "Feature", "properties": { "CHFCAC": "K5215D08D00015", "GZEE": "101", "SHEET": "K5215" }, "geometry": { "type": "LineString", "coordinates": [ [ 128.693001455651057, 42.413388338620436 ], [ 128.696628833688123, 42.411192396957759 ], [ 128.705823367361916, 42.405598812942884 ] ] } },
{ "type": "Feature", "properties": { "CHFCAC": "K5215D08D00016", "GZEE": "522", "SHEET": "K5215" }, "geometry": { "type": "LineString", "coordinates": [ [ 128.704753796711174, 42.415440261209746 ], [ 128.70493007388049, 42.414301903839416 ], [ 128.705823367361916, 42.405598812942884 ], [ 128.707212088823297, 42.400047840828115 ], [ 128.709280778281169, 42.395254776886425 ] ] } },
{ "type": "Feature", "properties": { "CHFCAC": "K5215D08D00017", "GZEE": "522", "SHEET": "K5215" }, "geometry": { "type": "LineString", "coordinates": [ [ 128.705070951342464, 42.420108856079395 ], [ 128.700478699448723, 42.417828331184403 ], [ 128.698950084986109, 42.417063614286661 ], [ 128.693001455651057, 42.413388338620436 ], [ 128.689096138446644, 42.410348484661405 ] ] } },
{ "type": "Feature", "properties": { "CHFCAC": "K5215D08D00018", "GZEE": "522", "SHEET": "K5215" }, "geometry": { "type": "LineString", "coordinates": [ [ 128.696669886031287, 42.430187670959114 ], [ 128.690381932708419, 42.425750665208753 ], [ 128.689363662266175, 42.424991702517914 ], [ 128.68339429145837, 42.420204077361092 ], [ 128.67951594796051, 42.417010930661228 ] ] } },
{ "type": "Feature", "properties": { "CHFCAC": "K5215D08D00019", "GZEE": "522", "SHEET": "K5215" }, "geometry": { "type": "LineString", "coordinates": [ [ 128.724731894815676, 42.408044933563929 ], [ 128.714204105895419, 42.399309273301022 ], [ 128.710808097073141, 42.396649524517429 ], [ 128.709280778281169, 42.395254776886425 ], [ 128.699296020316041, 42.388427641867182 ], [ 128.696880088626671, 42.38689085170175 ] ] } },
{ "type": "Feature", "properties": { "CHFCAC": "K5215D08D00020", "GZEE": "101", "SHEET": "K5215" }, "geometry": { "type": "LineString", "coordinates": [ [ 128.68339429145837, 42.420204077361092 ], [ 128.693001455651057, 42.413388338620436 ] ] } },
{ "type": "Feature", "properties": { "CHFCAC": "K5215D08D00021", "GZEE": "101", "SHEET": "K5215" }, "geometry": { "type": "LineString", "coordinates": [ [ 128.836173166234431, 42.189759526720138 ], [ 128.841802653810532, 42.18623381880095 ], [ 128.848208078701845, 42.18263683887934 ], [ 128.853210009964357, 42.179370816728202 ], [ 128.857616744979879, 42.176040819926826 ], [ 128.860076899502047, 42.174468346185428 ] ] } },
{ "type": "Feature", "properties": { "CHFCAC": "K5215D08D00022", "GZEE": "101", "SHEET": "K5215" }, "geometry": { "type": "LineString", "coordinates": [ [ 128.8035816254677, 42.214222985329911 ], [ 128.799103921566513, 42.217631785657069 ], [ 128.794708717604294, 42.221643740494841 ] ] } },
{ "type": "Feature", "properties": { "CHFCAC": "K5215D08D00023", "GZEE": "101", "SHEET": "K5215" }, "geometry": { "type": "LineString", "coordinates": [ [ 128.779077134976831, 42.296193158976763 ], [ 128.778114984919682, 42.280261082770409 ], [ 128.776307714773452, 42.262234186370193 ], [ 128.775435329413313, 42.250389408644573 ], [ 128.775683398256945, 42.240122278270746 ] ] } },
{ "type": "Feature", "properties": { "CHFCAC": "K5215D08D00024", "GZEE": "101", "SHEET": "K5215" }, "geometry": { "type": "LineString", "coordinates": [ [ 128.780686333357579, 42.322826026678399 ], [ 128.778849474545325, 42.312320948472099 ], [ 128.778192500746343, 42.305630724178499 ], [ 128.77805645949536, 42.296443260506003 ] ] } },
{ "type": "Feature", "properties": { "CHFCAC": "K5215D08D00025", "GZEE": "101", "SHEET": "K5215" }, "geometry": { "type": "LineString", "coordinates": [ [ 128.785964773759332, 42.32245789082436 ], [ 128.785247332264987, 42.332683508304719 ], [ 128.783841710055555, 42.344942386327951 ], [ 128.783299521000487, 42.354110480626296 ], [ 128.782062043829654, 42.366729713695861 ], [ 128.782366931116542, 42.3774568067196 ], [ 128.782498998426888, 42.380986045758988 ], [ 128.782676537960867, 42.385789227957623 ] ] } },
{ "type": "Feature", "properties": { "CHFCAC": "K5215D08D00026", "GZEE": "522", "SHEET": "K5215" }, "geometry": { "type": "LineString", "coordinates": [ [ 128.768258081491808, 42.323431766143408 ], [ 128.780686333357579, 42.322826026678399 ], [ 128.785964773759332, 42.32245789082436 ], [ 128.802989644587626, 42.321480111590482 ] ] } },
{ "type": "Feature", "properties": { "CHFCAC": "K5215D08D00027", "GZEE": "522", "SHEET": "K5215" }, "geometry": { "type": "LineString", "coordinates": [ [ 128.733320797733484, 42.301393937520629 ], [ 128.742680175219078, 42.301037211679656 ], [ 128.766478488503083, 42.298184790389143 ], [ 128.77805645949536, 42.296443260506003 ], [ 128.779077134976831, 42.296193158976763 ], [ 128.789291071336862, 42.294695433136603 ] ] } },
{ "type": "Feature", "properties": { "CHFCAC": "K5215D08D00028", "GZEE": "101", "SHEET": "K5215" }, "geometry": { "type": "LineString", "coordinates": [ [ 128.693007403916397, 42.342732102861852 ], [ 128.689590515434503, 42.345374155412813 ], [ 128.685657126612938, 42.348770910636375 ], [ 128.681544669797091, 42.353553427875568 ], [ 128.677987235308052, 42.357351571621059 ], [ 128.677263202123015, 42.357961712013712 ], [ 128.671542477170789, 42.363049903002924 ], [ 128.670321186085317, 42.364077194230859 ], [ 128.66459667644321, 42.369912234343978 ], [ 128.65483656507746, 42.379137854292793 ], [ 128.647481461201892, 42.384287415902321 ], [ 128.6401287675655, 42.388432735847701 ], [ 128.632894424578552, 42.392974062985871 ], [ 128.626728477434426, 42.398508679212526 ], [ 128.621760201052325, 42.40278657596879 ], [ 128.618273730180192, 42.405255207090669 ] ] } },
{ "type": "Feature", "properties": { "CHFCAC": "K5215D08D00029", "GZEE": "522", "SHEET": "K5215" }, "geometry": { "type": "LineString", "coordinates": [ [ 128.684493251931428, 42.342835027618484 ], [ 128.693007403916397, 42.342732102861852 ], [ 128.723142828355662, 42.343943144559077 ], [ 128.747033032058226, 42.345794354982374 ], [ 128.748507281295815, 42.34592813305612 ], [ 128.757698592036405, 42.346672631304351 ], [ 128.764848951299911, 42.346818057679926 ], [ 128.771149726581115, 42.346452700225072 ], [ 128.779156038343729, 42.34570768261721 ], [ 128.783841710055555, 42.344942386327951 ] ] } },
{ "type": "Feature", "properties": { "CHFCAC": "K5215D08D00030", "GZEE": "101", "SHEET": "K5215" }, "geometry": { "type": "LineString", "coordinates": [ [ 128.710808097073141, 42.396649524517429 ], [ 128.714912390189511, 42.393504430686072 ], [ 128.719874989582934, 42.388718334336446 ], [ 128.724494855423245, 42.384187767164711 ], [ 128.727067747761794, 42.38078646511201 ], [ 128.73339504418135, 42.375120765046837 ], [ 128.738189074917926, 42.3697032849769 ], [ 128.744692624563982, 42.362295357093885 ], [ 128.750682248164338, 42.355241534699324 ], [ 128.754446521385489, 42.350329762532084 ], [ 128.757698592036405, 42.346672631304351 ] ] } },
{ "type": "Feature", "properties": { "CHFCAC": "K5215D08D00031", "GZEE": "522", "SHEET": "K5215" }, "geometry": { "type": "LineString", "coordinates": [ [ 128.804376807755744, 42.354125873441106 ], [ 128.804592741349211, 42.352888385783451 ], [ 128.805467234013946, 42.345566282146791 ], [ 128.806502092892515, 42.34074715523068 ] ] } },
{ "type": "Feature", "properties": { "CHFCAC": "K5215D08D00032", "GZEE": "522", "SHEET": "K5215" }, "geometry": { "type": "LineString", "coordinates": [ [ 128.800169378262524, 42.35148986573121 ], [ 128.804376807755744, 42.354125873441106 ], [ 128.808994753245429, 42.357014478379647 ], [ 128.809518153887694, 42.357312430150202 ], [ 128.815296092025193, 42.360850884960747 ], [ 128.819888808185311, 42.363261874032062 ] ] } },
{ "type": "Feature", "properties": { "CHFCAC": "K5215D08D00033", "GZEE": "522", "SHEET": "K5215" }, "geometry": { "type": "LineString", "coordinates": [ [ 128.804670857792161, 42.381413075585741 ], [ 128.805888738182688, 42.373461412696393 ], [ 128.808843518386198, 42.360115603328268 ], [ 128.809518153887694, 42.357312430150202 ] ] } },
{ "type": "Feature", "properties": { "CHFCAC": "K5215D08D00034", "GZEE": "102", "SHEET": "K5215" }, "geometry": { "type": "LineString", "coordinates": [ [ 128.916484248294125, 42.529679138258402 ], [ 128.921338974917745, 42.530875378022202 ], [ 128.925653104486457, 42.531634448795536 ], [ 128.930925059694886, 42.53174127469083 ], [ 128.939343269025443, 42.532097128215355 ], [ 128.941697390602712, 42.532539462078383 ], [ 128.943039102307949, 42.532814706532101 ], [ 128.94546792409011, 42.53350006166486 ], [ 128.946971266380785, 42.534270462406845 ], [ 128.949006351021552, 42.535176115399182 ], [ 128.950477317416386, 42.535860934296949 ] ] } },
{ "type": "Feature", "properties": { "CHFCAC": "K5215D08D00035", "GZEE": "101", "SHEET": "K5215" }, "geometry": { "type": "LineString", "coordinates": [ [ 128.787168429750579, 42.628153626919655 ], [ 128.792775791794412, 42.624954642574515 ], [ 128.797132622635615, 42.622081759710582 ], [ 128.799042864339498, 42.620523252992797 ], [ 128.801817588807523, 42.616688669547656 ] ] } },
{ "type": "Feature", "properties": { "CHFCAC": "K5215D08D00036", "GZEE": "102", "SHEET": "K5215" }, "geometry": { "type": "LineString", "coordinates": [ [ 128.94690935323851, 42.570995127761719 ], [ 128.948135878191579, 42.571225246213345 ], [ 128.9510979604064, 42.571906217428499 ], [ 128.952734156661904, 42.572284996961343 ], [ 128.963222563690948, 42.573999265420532 ], [ 128.964488188913066, 42.574175208256918 ], [ 128.970382140502977, 42.575293157879528 ], [ 128.981050585924123, 42.577424443121338 ], [ 128.986176544563818, 42.578762004975225 ], [ 128.98928866440005, 42.579460009637394 ] ] } },
{ "type": "Feature", "properties": { "CHFCAC": "K5215D08D00037", "GZEE": "102", "SHEET": "K5215" }, "geometry": { "type": "LineString", "coordinates": [ [ 128.977431052936765, 42.593924823768646 ], [ 128.975374585926858, 42.594086439660607 ], [ 128.973611899423076, 42.593996024914141 ], [ 128.96355629549771, 42.593201075723925 ], [ 128.96158634106925, 42.592975377136305 ], [ 128.951796792058474, 42.591562834403611 ] ] } },
{ "type": "Feature", "properties": { "CHFCAC": "K5215D08D00038", "GZEE": "520", "SHEET": "K5215" }, "geometry": { "type": "LineString", "coordinates": [ [ 128.984845667626786, 42.637010357288126 ], [ 128.985870721245163, 42.631424669548402 ], [ 128.987407546770243, 42.624178129760402 ], [ 128.990171656603138, 42.616778635414434 ], [ 128.993649972663519, 42.609379106655624 ], [ 128.994467760111434, 42.605845798450524 ], [ 128.995287872858512, 42.601619314631819 ], [ 128.996516370206479, 42.598369571792411 ], [ 128.998664371791023, 42.595277366666323 ], [ 128.999991910883864, 42.59391804411581 ] ] } },
{ "type": "Feature", "properties": { "CHFCAC": "K5215D08D00039", "GZEE": "102", "SHEET": "K5215" }, "geometry": { "type": "LineString", "coordinates": [ [ 128.94608296892585, 42.634428566402235 ], [ 128.947390513359181, 42.634028579734817 ], [ 128.951302740419493, 42.633224619180247 ], [ 128.955175521982795, 42.632339490731184 ], [ 128.956420850162829, 42.632096912947496 ], [ 128.958875293856408, 42.631719731631115 ], [ 128.963070918703039, 42.631118018140072 ], [ 128.966961134880137, 42.631191222460146 ], [ 128.975513322413661, 42.631958550615934 ], [ 128.977483514512443, 42.632301036083668 ], [ 128.982511886173029, 42.633085099057304 ] ] } },
{ "type": "Feature", "properties": { "CHFCAC": "K5215D08D00040", "GZEE": "321", "SHEET": "K5215" }, "geometry": { "type": "LineString", "coordinates": [ [ 128.897050917644549, 42.566505078849254 ], [ 128.897598740057987, 42.574783113235668 ], [ 128.898101080260801, 42.579388194548606 ], [ 128.898693256423144, 42.58524015265278 ], [ 128.898637080302052, 42.586045801726023 ], [ 128.898860903637541, 42.588211028228145 ], [ 128.898839199132709, 42.593873387992211 ], [ 128.898193258579681, 42.607704659729436 ], [ 128.897515863102939, 42.619577899432791 ] ] } },
{ "type": "Feature", "properties": { "CHFCAC": "K5215D08D00041", "GZEE": "522", "SHEET": "K5215" }, "geometry": { "type": "LineString", "coordinates": [ [ 128.866903159272312, 42.586589472957883 ], [ 128.874681491162505, 42.589726507435287 ], [ 128.880095260169725, 42.591208660322934 ], [ 128.88359258262409, 42.592134992425322 ], [ 128.885093241584599, 42.592343556556735 ], [ 128.890409191895657, 42.593181466936997 ], [ 128.891227187181329, 42.593335283612952 ], [ 128.898839199132709, 42.593873387992211 ] ] } },
{ "type": "Feature", "properties": { "CHFCAC": "K5215D08D00042", "GZEE": "101", "SHEET": "K5215" }, "geometry": { "type": "LineString", "coordinates": [ [ 128.829410938114108, 42.590406233273789 ], [ 128.836351094072029, 42.586243835632665 ], [ 128.839820695299522, 42.584407790160817 ], [ 128.852305028045777, 42.575921978300379 ] ] } },
{ "type": "Feature", "properties": { "CHFCAC": "K5215D08D00043", "GZEE": "101", "SHEET": "K5215" }, "geometry": { "type": "LineString", "coordinates": [ [ 128.805896858505207, 42.609750493027484 ], [ 128.810117023242498, 42.604927902449475 ], [ 128.814733125009184, 42.600479385019113 ], [ 128.821498194004789, 42.595282363778736 ], [ 128.829978710226897, 42.590681641008899 ] ] } },
{ "type": "Feature", "properties": { "CHFCAC": "K5215D08D00044", "GZEE": "102", "SHEET": "K5215" }, "geometry": { "type": "LineString", "coordinates": [ [ 128.914377752123073, 42.627338084532809 ], [ 128.905909348375701, 42.62307793302233 ], [ 128.897515863102939, 42.619577899432791 ], [ 128.877997638431395, 42.611947457395594 ], [ 128.875542712060991, 42.610887065410459 ], [ 128.863627514350696, 42.606881041106028 ], [ 128.854217760386632, 42.602746461144108 ], [ 128.853199519607131, 42.602209534331898 ], [ 128.847550773298025, 42.599438487189829 ], [ 128.839885475345142, 42.595377050546219 ], [ 128.829978710226897, 42.590681641008899 ], [ 128.829410938114108, 42.590406233273789 ], [ 128.823564564341041, 42.587651709550471 ], [ 128.81298284596798, 42.583304871166661 ], [ 128.812105805616483, 42.58281731414165 ], [ 128.806889968251113, 42.580945187915773 ], [ 128.802835680150764, 42.579160345913834 ], [ 128.796197939393153, 42.576128494217897 ], [ 128.78598772127242, 42.572337951396705 ], [ 128.781078038448015, 42.570343683303641 ], [ 128.778931200330533, 42.56916027249833 ], [ 128.764972514989097, 42.560841442233638 ] ] } },
{ "type": "Feature", "properties": { "CHFCAC": "K5215D08D00045", "GZEE": "103", "SHEET": "K5215" }, "geometry": { "type": "LineString", "coordinates": [ [ 128.924477600970732, 42.66699945667898 ], [ 128.91883088406712, 42.657345365958328 ], [ 128.917606563717442, 42.655003947846481 ], [ 128.916892276839917, 42.652586370480897 ], [ 128.916490628748392, 42.647904986062983 ], [ 128.916496395104531, 42.642845806914359 ], [ 128.916600354794781, 42.641788134510627 ], [ 128.916811960771383, 42.636805616865466 ], [ 128.916407619249526, 42.633195471116956 ], [ 128.914676071018476, 42.628288033048094 ], [ 128.914377752123073, 42.627338084532809 ], [ 128.913459678170767, 42.619829610460954 ] ] } },
{ "type": "Feature", "properties": { "CHFCAC": "K5215D08D00046", "GZEE": "522", "SHEET": "K5215" }, "geometry": { "type": "LineString", "coordinates": [ [ 128.277077216711149, 42.666971235946768 ], [ 128.275860515015353, 42.665253168009301 ], [ 128.273138669330848, 42.661612616690874 ], [ 128.271529078826319, 42.659108837964844 ] ] } },
{ "type": "Feature", "properties": { "CHFCAC": "K5215D08D00047", "GZEE": "522", "SHEET": "K5215" }, "geometry": { "type": "LineString", "coordinates": [ [ 128.292071022309017, 42.653350286230562 ], [ 128.28887195472069, 42.655594483623673 ], [ 128.286707048938723, 42.656940330642797 ], [ 128.28422926480377, 42.658738784186525 ], [ 128.275860515015353, 42.665253168009301 ] ] } },
{ "type": "Feature", "properties": { "CHFCAC": "K5215D08D00048", "GZEE": "101", "SHEET": "K5215" }, "geometry": { "type": "LineString", "coordinates": [ [ 128.270588916599905, 42.643452800801242 ], [ 128.273518786226532, 42.64672115762189 ], [ 128.277456591960458, 42.651350606827755 ], [ 128.28422926480377, 42.658738784186525 ] ] } },
{ "type": "Feature", "properties": { "CHFCAC": "K5215D08D00049", "GZEE": "522", "SHEET": "K5215" }, "geometry": { "type": "LineString", "coordinates": [ [ 128.26873459401537, 42.644498719541552 ], [ 128.270054173984875, 42.643791472580411 ], [ 128.270588916599905, 42.643452800801242 ], [ 128.281828238904808, 42.636052118173403 ] ] } },
{ "type": "Feature", "properties": { "CHFCAC": "K5215D08D00050", "GZEE": "101", "SHEET": "K5215" }, "geometry": { "type": "LineString", "coordinates": [ [ 128.253627329277577, 42.624344708807513 ], [ 128.25562860568769, 42.627882028428637 ], [ 128.25996935288282, 42.63273976644399 ], [ 128.264710212853316, 42.637937482572511 ], [ 128.270054173984875, 42.643791472580411 ] ] } },
{ "type": "Feature", "properties": { "CHFCAC": "K5215D08D00051", "GZEE": "520", "SHEET": "K5215" }, "geometry": { "type": "LineString", "coordinates": [ [ 128.077768250984491, 42.592263418118392 ], [ 128.078823853135475, 42.595512662445877 ], [ 128.080134240138193, 42.598952977044462 ] ] } },
{ "type": "Feature", "properties": { "CHFCAC": "K5215D08D00052", "GZEE": "520", "SHEET": "K5215" }, "geometry": { "type": "LineString", "coordinates": [ [ 128.067674336360454, 42.568362137182916 ], [ 128.069255782337024, 42.57069304984693 ], [ 128.069951312935387, 42.572103036892699 ] ] } },
{ "type": "Feature", "properties": { "CHFCAC": "K5215D08D00053", "GZEE": "102", "SHEET": "K5215" }, "geometry": { "type": "LineString", "coordinates": [ [ 128.943486924490713, 42.650262029989101 ], [ 128.945400687524256, 42.650663551503747 ], [ 128.946037346522758, 42.650852897246516 ], [ 128.94890164858063, 42.651322320690724 ], [ 128.95195939491893, 42.651557698271368 ], [ 128.955847318114365, 42.651653783888086 ], [ 128.959605240798595, 42.651466126931197 ], [ 128.963874367780932, 42.65113897579625 ], [ 128.96750411361424, 42.650577432331879 ], [ 128.971009815055908, 42.649871707702687 ], [ 128.974195314699273, 42.649075783591982 ], [ 128.976170302388738, 42.648603601081426 ], [ 128.977635632683075, 42.648185298737999 ], [ 128.978291799692528, 42.647820839965206 ], [ 128.980947867501925, 42.646633034642385 ], [ 128.983942956659689, 42.645035619449203 ], [ 128.98728777030243, 42.643460670537486 ] ] } },
{ "type": "Feature", "properties": { "CHFCAC": "K5215D08D00054", "GZEE": "522", "SHEET": "K5215" }, "geometry": { "type": "LineString", "coordinates": [ [ 128.946259338077681, 42.32265855277047 ], [ 128.95488712500719, 42.33031449003537 ], [ 128.963304868560385, 42.33859088034243 ], [ 128.972144508685943, 42.34530929834073 ], [ 128.979093410404687, 42.349523982160328 ] ] } },
{ "type": "Feature", "properties": { "CHFCAC": "K5215D08D00055", "GZEE": "520", "SHEET": "K5215" }, "geometry": { "type": "LineString", "coordinates": [ [ 128.075517957479519, 42.586772016430793 ], [ 128.076586133327652, 42.589485760905866 ], [ 128.077300433587766, 42.591210915782717 ] ] } },
{ "type": "Feature", "properties": { "CHFCAC": "K5215D08D00056", "GZEE": "520", "SHEET": "K5215" }, "geometry": { "type": "LineString", "coordinates": [ [ 128.070799155317019, 42.573514238512473 ], [ 128.072032265949048, 42.575945793718965 ], [ 128.073557566417833, 42.57993707915557 ], [ 128.075058078561113, 42.585728546003523 ] ] } },
{ "type": "Feature", "properties": { "CHFCAC": "K5215D08D00057", "GZEE": "101", "SHEET": "K5215" }, "geometry": { "type": "LineString", "coordinates": [ [ 128.818859871647817, 42.201486670795809 ], [ 128.821902376348817, 42.208329058116277 ], [ 128.82494291786054, 42.215022807931156 ], [ 128.828321304939919, 42.221590941434414 ], [ 128.833401121915614, 42.228544066170052 ], [ 128.840009724286546, 42.2367549825588 ], [ 128.841535404213545, 42.238688188345741 ] ] } },
{ "type": "Feature", "properties": { "CHFCAC": "K5215D08D00058", "GZEE": "101", "SHEET": "K5215" }, "geometry": { "type": "LineString", "coordinates": [ [ 128.774141379119101, 42.236810744351615 ], [ 128.768575235623359, 42.237731437162054 ], [ 128.762794194590811, 42.238601892246052 ], [ 128.755135452190274, 42.24035033937561 ], [ 128.746117109750429, 42.242855995527357 ], [ 128.736990586097278, 42.245738816655695 ], [ 128.727276077465234, 42.251648919564268 ], [ 128.718915854747223, 42.258065675880417 ], [ 128.713636283664584, 42.25956507276485 ], [ 128.703764283028022, 42.261309033623469 ], [ 128.689290018884549, 42.265434480347196 ], [ 128.680074322196333, 42.271846063253257 ], [ 128.671531310562102, 42.279271629186923 ], [ 128.661961060598117, 42.287067140831681 ] ] } },
{ "type": "Feature", "properties": { "CHFCAC": "K5215D08D00059", "GZEE": "522", "SHEET": "K5215" }, "geometry": { "type": "LineString", "coordinates": [ [ 128.822612932000112, 42.364022333395162 ], [ 128.82873768230678, 42.366682895238839 ] ] } },
{ "type": "Feature", "properties": { "CHFCAC": "K5215D08D00060", "GZEE": "101", "SHEET": "K5215" }, "geometry": { "type": "LineString", "coordinates": [ [ 128.220526797433507, 42.638027959252327 ], [ 128.208445970742446, 42.627484720101833 ], [ 128.200695223411742, 42.61886993717372 ], [ 128.198037516664925, 42.616015716408782 ] ] } },
{ "type": "Feature", "properties": { "CHFCAC": "K5215D08D00061", "GZEE": "101", "SHEET": "K5215" }, "geometry": { "type": "LineString", "coordinates": [ [ 128.25190443951189, 42.666944634536243 ], [ 128.248637483762423, 42.662930853132352 ], [ 128.234435321453731, 42.64557993244906 ], [ 128.228162385581953, 42.639722519177383 ], [ 128.224714976034335, 42.637120159789696 ] ] } },
{ "type": "Feature", "properties": { "CHFCAC": "K5215D08D00062", "GZEE": "101", "SHEET": "K5215" }, "geometry": { "type": "LineString", "coordinates": [ [ 128.209687836305164, 42.61613718677534 ], [ 128.212942883141409, 42.619607384494749 ], [ 128.219581670587985, 42.624964024224603 ], [ 128.226976854031477, 42.629726744981696 ], [ 128.234080975318875, 42.634455532978698 ], [ 128.234933636737765, 42.635293920764056 ] ] } },
{ "type": "Feature", "properties": { "CHFCAC": "K5215D08D00063", "GZEE": "521", "SHEET": "K5215" }, "geometry": { "type": "LineString", "coordinates": [ [ 128.200695223411742, 42.61886993717372 ], [ 128.204516170016063, 42.617735271121994 ], [ 128.209687836305164, 42.61613718677534 ] ] } },
{ "type": "Feature", "properties": { "CHFCAC": "K5215D08D00064", "GZEE": "522", "SHEET": "K5215" }, "geometry": { "type": "LineString", "coordinates": [ [ 128.212942883141409, 42.619607384494749 ], [ 128.21537433522164, 42.616603872259368 ], [ 128.218372207758591, 42.614054276653107 ], [ 128.221779013232009, 42.611741413555386 ], [ 128.22424868556206, 42.61039886059514 ] ] } },
{ "type": "Feature", "properties": { "CHFCAC": "K5215D08D00065", "GZEE": "522", "SHEET": "K5215" }, "geometry": { "type": "LineString", "coordinates": [ [ 128.198237625570698, 42.628701025627294 ], [ 128.194389835850046, 42.625577322761742 ], [ 128.190456024297504, 42.621093583401375 ], [ 128.184281601138025, 42.614316234903562 ], [ 128.183504459465865, 42.613054894481969 ], [ 128.181203526078519, 42.609113564380856 ], [ 128.179544382015877, 42.604807697850873 ], [ 128.178073489047705, 42.601016289096478 ] ] } },
{ "type": "Feature", "properties": { "CHFCAC": "K5215D08D00066", "GZEE": "521", "SHEET": "K5215" }, "geometry": { "type": "LineString", "coordinates": [ [ 128.218559527012502, 42.638374624967923 ], [ 128.220526797433507, 42.638027959252327 ], [ 128.224714976034335, 42.637120159789696 ], [ 128.232101084742936, 42.635639558842968 ], [ 128.234933636737765, 42.635293920764056 ], [ 128.238882821814769, 42.635095175408075 ] ] } },
{ "type": "Feature", "properties": { "CHFCAC": "K5215D08D00067", "GZEE": "522", "SHEET": "K5215" }, "geometry": { "type": "LineString", "coordinates": [ [ 128.132754515359323, 42.630033428432441 ], [ 128.135560698816022, 42.634128076966377 ] ] } },
{ "type": "Feature", "properties": { "CHFCAC": "K5215D08D00068", "GZEE": "522", "SHEET": "K5215" }, "geometry": { "type": "LineString", "coordinates": [ [ 128.130064002501172, 42.624724340587846 ], [ 128.131556618779712, 42.627832363035289 ] ] } },
{ "type": "Feature", "properties": { "CHFCAC": "K5215D08D00069", "GZEE": "522", "SHEET": "K5215" }, "geometry": { "type": "LineString", "coordinates": [ [ 128.116151279070039, 42.595869722545707 ], [ 128.11810979934009, 42.602001734816824 ], [ 128.120873956483194, 42.609116610155965 ], [ 128.125358657886039, 42.617531862411802 ], [ 128.128363914741868, 42.622087304031901 ] ] } },
{ "type": "Feature", "properties": { "CHFCAC": "K5215D08D00070", "GZEE": "521", "SHEET": "K5215" }, "geometry": { "type": "LineString", "coordinates": [ [ 128.142142326859471, 42.609583918938966 ], [ 128.148232492381879, 42.605474906156729 ], [ 128.154108181219954, 42.60212015051799 ], [ 128.154424689291034, 42.601991949230538 ], [ 128.160186964674097, 42.598996118419421 ] ] } },
{ "type": "Feature", "properties": { "CHFCAC": "K5215D08D00071", "GZEE": "520", "SHEET": "K5215" }, "geometry": { "type": "LineString", "coordinates": [ [ 128.122217751859353, 42.652885835894892 ], [ 128.118005738132183, 42.645471832536145 ], [ 128.112817452511621, 42.638086117754128 ], [ 128.108134079107543, 42.632581017129475 ], [ 128.098202791540757, 42.620706090914645 ], [ 128.093678456516528, 42.615098130528587 ], [ 128.087662628959805, 42.609181019479465 ] ] } },
{ "type": "Feature", "properties": { "CHFCAC": "K5215D08D00072", "GZEE": "522", "SHEET": "K5215" }, "geometry": { "type": "LineString", "coordinates": [ [ 128.132062447453023, 42.6478477148679 ], [ 128.141987602871012, 42.64311539749739 ], [ 128.151682069827388, 42.637678354842137 ] ] } },
{ "type": "Feature", "properties": { "CHFCAC": "K5215D08D00073", "GZEE": "101", "SHEET": "K5215" }, "geometry": { "type": "LineString", "coordinates": [ [ 128.123050064885632, 42.655655826388809 ], [ 128.125617837982787, 42.658907173901262 ], [ 128.13049674180786, 42.665178193325794 ], [ 128.131938304395646, 42.667016530592001 ] ] } },
{ "type": "Feature", "properties": { "CHFCAC": "K5215D08D00074", "GZEE": "101", "SHEET": "K5215" }, "geometry": { "type": "LineString", "coordinates": [ [ 128.084858983602317, 42.651886829084589 ], [ 128.089784095854185, 42.657660326368102 ], [ 128.096540242288341, 42.664586846786364 ], [ 128.099031418493524, 42.667009981836031 ] ] } },
{ "type": "Feature", "properties": { "CHFCAC": "K5215D08D00075", "GZEE": "520", "SHEET": "K5215" }, "geometry": { "type": "LineString", "coordinates": [ [ 128.083366195773152, 42.65692949887891 ], [ 128.089784095854185, 42.657660326368102 ] ] } },
{ "type": "Feature", "properties": { "CHFCAC": "K5215D08D00076", "GZEE": "520", "SHEET": "K5215" }, "geometry": { "type": "LineString", "coordinates": [ [ 128.077776943379718, 42.656038457410638 ], [ 128.082660873693499, 42.656167685175426 ] ] } },
{ "type": "Feature", "properties": { "CHFCAC": "K5215D08D00077", "GZEE": "101", "SHEET": "K5215" }, "geometry": { "type": "LineString", "coordinates": [ [ 128.087095595257409, 42.660884149270032 ], [ 128.083366195773152, 42.65692949887891 ], [ 128.082660873693499, 42.656167685175426 ], [ 128.080745667328614, 42.654117888777058 ] ] } },
{ "type": "Feature", "properties": { "CHFCAC": "K5215D08D00078", "GZEE": "101", "SHEET": "K5215" }, "geometry": { "type": "LineString", "coordinates": [ [ 128.063923618849202, 42.663267198588393 ], [ 128.06719279041738, 42.663595450281449 ], [ 128.071377306561601, 42.664534141122772 ], [ 128.077753656755192, 42.667079204389566 ] ] } },
{ "type": "Feature", "properties": { "CHFCAC": "K5215D08D00079", "GZEE": "101", "SHEET": "K5215" }, "geometry": { "type": "LineString", "coordinates": [ [ 128.001006889010426, 42.662330689013565 ], [ 128.007148449457389, 42.66052066199471 ], [ 128.011967754132968, 42.660035717492413 ], [ 128.015957330297312, 42.660218593082163 ], [ 128.029141613978396, 42.661613878884083 ], [ 128.040794330788771, 42.662621267173925 ], [ 128.050510717413459, 42.663305343620991 ], [ 128.057449020944716, 42.664388871302727 ] ] } },
{ "type": "Feature", "properties": { "CHFCAC": "K5215D08D00080", "GZEE": "101", "SHEET": "K5215" }, "geometry": { "type": "LineString", "coordinates": [ [ 128.660287487209843, 42.434758471759629 ], [ 128.660510189568697, 42.434619011283836 ], [ 128.666587865564964, 42.430563253343244 ], [ 128.677175535730072, 42.423531139828981 ], [ 128.68339429145837, 42.420204077361092 ] ] } }
]
}
